J95Y03Y  8.5   0.15 K145N  27.14695  322.72409   99.69915    0.44208  0.2229213  0.00395799  39.5809560  E MPC 27920    21   2 1995-1996 0.91 M-v 38h Marsden    000E          1995 YY3           19960000
